{
  "type": "FeatureCollection",
  "features": [
    {
      "type": "Feature",
      "properties": {
        "norad_id": 34540,
        "name": "IRIDIUM 33 DEB",
        "group": "iridium-33-debris",
        "lat": -35.131939414565636,
        "lon": 125.32958308490363,
        "alt_km": 650.2229785985191,
        "timestamp": "2025-12-23T09:49:07.468158+00:00",
        "meta_object_name": "IRIDIUM 33 DEB",
        "meta_object_id": "1997-051JH",
        "meta_epoch": "2025-12-22T19:58:08.744160",
        "meta_mean_motion": 14.75512106,
        "meta_eccentricity": 0.00179406,
        "meta_inclination": 86.3119,
        "meta_ra_of_asc_node": 302.992,
        "meta_arg_of_pericenter": 125.3836,
        "meta_mean_anomaly": 266.2203,
        "meta_ephemeris_type": 0,
        "meta_classification_type": "U",
        "meta_norad_cat_id": 34540,
        "meta_element_set_no": 999,
        "meta_rev_at_epoch": 89170,
        "meta_bstar": 0.0015814186,
        "meta_mean_motion_dot": 0.00010821,
        "meta_mean_motion_ddot": 0,
        "tle_line1": "1 34540U 97051JH  25356.83204565  .00010821  00000+0  15814-2 0  9994",
        "tle_line2": "2 34540  86.3119 302.9920 0017940 125.3836 266.2203 14.75512106891708"
      },
      "geometry": {
        "type": "Point",
        "coordinates": [
          125.32958308490363,
          -35.131939414565636
        ]
      }
    },
    {
      "type": "Feature",
      "properties": {
        "norad_id": 34648,
        "name": "IRIDIUM 33 DEB",
        "group": "iridium-33-debris",
        "lat": 75.49247746572861,
        "lon": -68.24438194834582,
        "alt_km": 974.4234889365571,
        "timestamp": "2025-12-23T09:49:07.468168+00:00",
        "meta_object_name": "IRIDIUM 33 DEB",
        "meta_object_id": "1997-051JZ",
        "meta_epoch": "2025-12-21T18:19:39.887904",
        "meta_mean_motion": 14.11736102,
        "meta_eccentricity": 0.01798232,
        "meta_inclination": 86.3908,
        "meta_ra_of_asc_node": 278.3021,
        "meta_arg_of_pericenter": 270.6006,
        "meta_mean_anomaly": 87.4576,
        "meta_ephemeris_type": 0,
        "meta_classification_type": "U",
        "meta_norad_cat_id": 34648,
        "meta_element_set_no": 999,
        "meta_rev_at_epoch": 85088,
        "meta_bstar": 0.0054657739,
        "meta_mean_motion_dot": 0.00011615,
        "meta_mean_motion_ddot": 0,
        "tle_line1": "1 34648U 97051JZ  25355.76365611  .00011615  00000+0  54658-2 0  9995",
        "tle_line2": "2 34648  86.3908 278.3021 0179823 270.6006  87.4576 14.11736102850887"
      },
      "geometry": {
        "type": "Point",
        "coordinates": [
          -68.24438194834582,
          75.49247746572861
        ]
      }
    },
    {
      "type": "Feature",
      "properties": {
        "norad_id": 34651,
        "name": "IRIDIUM 33 DEB",
        "group": "iridium-33-debris",
        "lat": -39.32404925025103,
        "lon": 132.98522018213134,
        "alt_km": 900.4849817097765,
        "timestamp": "2025-12-23T09:49:07.468178+00:00",
        "meta_object_name": "IRIDIUM 33 DEB",
        "meta_object_id": "1997-051KC",
        "meta_epoch": "2025-12-19T16:44:48.420096",
        "meta_mean_motion": 14.25922062,
        "meta_eccentricity": 0.01422464,
        "meta_inclination": 86.2827,
        "meta_ra_of_asc_node": 137.6175,
        "meta_arg_of_pericenter": 181.9677,
        "meta_mean_anomaly": 178.0974,
        "meta_ephemeris_type": 0,
        "meta_classification_type": "U",
        "meta_norad_cat_id": 34651,
        "meta_element_set_no": 999,
        "meta_rev_at_epoch": 85995,
        "meta_bstar": 0.0022061693,
        "meta_mean_motion_dot": 5.865e-05,
        "meta_mean_motion_ddot": 0,
        "tle_line1": "1 34651U 97051KC  25353.69778264  .00005865  00000+0  22062-2 0  9995",
        "tle_line2": "2 34651  86.2827 137.6175 0142246 181.9677 178.0974 14.25922062859957"
      },
      "geometry": {
        "type": "Point",
        "coordinates": [
          132.98522018213134,
          -39.32404925025103
        ]
      }
    },
    {
      "type": "Feature",
      "properties": {
        "norad_id": 34652,
        "name": "IRIDIUM 33 DEB",
        "group": "iridium-33-debris",
        "lat": -40.1692372694841,
        "lon": -27.854324459649916,
        "alt_km": 684.0061051883149,
        "timestamp": "2025-12-23T09:49:07.468189+00:00",
        "meta_object_name": "IRIDIUM 33 DEB",
        "meta_object_id": "1997-051KD",
        "meta_epoch": "2025-12-22T22:37:56.808768",
        "meta_mean_motion": 14.62145244,
        "meta_eccentricity": 0.00254496,
        "meta_inclination": 86.3316,
        "meta_ra_of_asc_node": 335.4576,
        "meta_arg_of_pericenter": 260.7991,
        "meta_mean_anomaly": 126.9649,
        "meta_ephemeris_type": 0,
        "meta_classification_type": "U",
        "meta_norad_cat_id": 34652,
        "meta_element_set_no": 999,
        "meta_rev_at_epoch": 88633,
        "meta_bstar": 0.00098275366,
        "meta_mean_motion_dot": 4.986e-05,
        "meta_mean_motion_ddot": 0,
        "tle_line1": "1 34652U 97051KD  25356.94301862  .00004986  00000+0  98275-3 0  9996",
        "tle_line2": "2 34652  86.3316 335.4576 0025449 260.7991 126.9649 14.62145244886338"
      },
      "geometry": {
        "type": "Point",
        "coordinates": [
          -27.854324459649916,
          -40.1692372694841
        ]
      }
    },
    {
      "type": "Feature",
      "properties": {
        "norad_id": 34690,
        "name": "IRIDIUM 33 DEB",
        "group": "iridium-33-debris",
        "lat": -84.4740867588028,
        "lon": -8.55481340234899,
        "alt_km": 715.1603684703541,
        "timestamp": "2025-12-23T09:49:07.468199+00:00",
        "meta_object_name": "IRIDIUM 33 DEB",
        "meta_object_id": "1997-051KM",
        "meta_epoch": "2025-12-22T08:23:45.204864",
        "meta_mean_motion": 14.55129058,
        "meta_eccentricity": 0.00097229,
        "meta_inclination": 86.3773,
        "meta_ra_of_asc_node": 32.8141,
        "meta_arg_of_pericenter": 357.524,
        "meta_mean_anomaly": 131.3072,
        "meta_ephemeris_type": 0,
        "meta_classification_type": "U",
        "meta_norad_cat_id": 34690,
        "meta_element_set_no": 999,
        "meta_rev_at_epoch": 88234,
        "meta_bstar": 0.00039013292,
        "meta_mean_motion_dot": 1.706e-05,
        "meta_mean_motion_ddot": 0,
        "tle_line1": "1 34690U 97051KM  25356.34982876  .00001706  00000+0  39013-3 0  9994",
        "tle_line2": "2 34690  86.3773  32.8141 0009722 357.5240 131.3072 14.55129058882345"
      },
      "geometry": {
        "type": "Point",
        "coordinates": [
          -8.55481340234899,
          -84.4740867588028
        ]
      }
    },
    {
      "type": "Feature",
      "properties": {
        "norad_id": 34693,
        "name": "IRIDIUM 33 DEB",
        "group": "iridium-33-debris",
        "lat": -76.15401463341605,
        "lon": -76.68647284378899,
        "alt_km": 484.30837389802036,
        "timestamp": "2025-12-23T09:49:07.468209+00:00",
        "meta_object_name": "IRIDIUM 33 DEB",
        "meta_object_id": "1997-051KQ",
        "meta_epoch": "2025-12-22T20:17:31.585344",
        "meta_mean_motion": 15.30307063,
        "meta_eccentricity": 0.00107384,
        "meta_inclination": 86.305,
        "meta_ra_of_asc_node": 298.795,
        "meta_arg_of_pericenter": 34.9952,
        "meta_mean_anomaly": 25.5059,
        "meta_ephemeris_type": 0,
        "meta_classification_type": "U",
        "meta_norad_cat_id": 34693,
        "meta_element_set_no": 999,
        "meta_rev_at_epoch": 89069,
        "meta_bstar": 0.0045109095,
        "meta_mean_motion_dot": 0.00134541,
        "meta_mean_motion_ddot": 0,
        "tle_line1": "1 34693U 97051KQ  25356.84550446  .00134541  00000+0  45109-2 0  9992",
        "tle_line2": "2 34693  86.3050 298.7950 0010738  34.9952  25.5059 15.30307063890696"
      },
      "geometry": {
        "type": "Point",
        "coordinates": [
          -76.68647284378899,
          -76.15401463341605
        ]
      }
    },
    {
      "type": "Feature",
      "properties": {
        "norad_id": 34696,
        "name": "IRIDIUM 33 DEB",
        "group": "iridium-33-debris",
        "lat": 83.5683651645178,
        "lon": 58.87288155919892,
        "alt_km": 631.8061924241383,
        "timestamp": "2025-12-23T09:49:07.468219+00:00",
        "meta_object_name": "IRIDIUM 33 DEB",
        "meta_object_id": "1997-051KT",
        "meta_epoch": "2025-12-22T12:49:05.985120",
        "meta_mean_motion": 14.65530105,
        "meta_eccentricity": 0.00739958,
        "meta_inclination": 86.183,
        "meta_ra_of_asc_node": 22.9637,
        "meta_arg_of_pericenter": 134.5199,
        "meta_mean_anomaly": 17.3354,
        "meta_ephemeris_type": 0,
        "meta_classification_type": "U",
        "meta_norad_cat_id": 34696,
        "meta_element_set_no": 999,
        "meta_rev_at_epoch": 86816,
        "meta_bstar": 0.0048858102,
        "meta_mean_motion_dot": 0.00027681,
        "meta_mean_motion_ddot": 0,
        "tle_line1": "1 34696U 97051KT  25356.53409705  .00027681  00000+0  48858-2 0  9992",
        "tle_line2": "2 34696  86.1830  22.9637 0073995 134.5199  17.3354 14.65530105868162"
      },
      "geometry": {
        "type": "Point",
        "coordinates": [
          58.87288155919892,
          83.5683651645178
        ]
      }
    }
  ]
}